[{"OBJECT_NAME":"STARLINK-3901","OBJECT_ID":"2022-051AQ","EPOCH":"2026-03-09T10:21:06.774624","MEAN_MOTION":15.08837076,"ECCENTRICITY":0.00012495,"INCLINATION":53.2173,"RA_OF_ASC_NODE":120.2807,"ARG_OF_PERICENTER":94.5192,"MEAN_ANOMALY":265.5943,"EPHEMERIS_TYPE":0,"CLASSIFICATION_TYPE":"U","NORAD_CAT_ID":52574,"ELEMENT_SET_NO":999,"REV_AT_EPOCH":21154,"BSTAR":-1.314571e-5,"MEAN_MOTION_DOT":-4.97e-6,"MEAN_MOTION_DDOT":0},{"OBJECT_NAME":"NOAA 17 DEB","OBJECT_ID":"2002-032BW","EPOCH":"2026-03-08T22:40:23.580768","MEAN_MOTION":15.05196658,"ECCENTRICITY":0.00149213,"INCLINATION":98.7181,"RA_OF_ASC_NODE":121.0481,"ARG_OF_PERICENTER":217.4424,"MEAN_ANOMALY":142.5761,"EPHEMERIS_TYPE":0,"CLASSIFICATION_TYPE":"U","NORAD_CAT_ID":48737,"ELEMENT_SET_NO":999,"REV_AT_EPOCH":26108,"BSTAR":0.0055556624,"MEAN_MOTION_DOT":0.00080221,"MEAN_MOTION_DDOT":0}]
